ONEWEB-0176             
1 48210U 21031A   25175.57763570  .00000223  00000+0  56688-3 0  9994
2 48210  87.9031   0.8486 0001841  92.5108 267.6232 13.14503207201333
ONEWEB-0184             
1 48211U 21031B   25175.93126699 -.00000153  00000+0 -44671-3 0  9993
2 48211  87.9028   0.7482 0002702  97.6020 262.5417 13.14503533201354
ONEWEB-0179             
1 48212U 21031C   25175.90193311  .00000135  00000+0  32929-3 0  9997
2 48212  87.9037   0.7717 0001822  87.1486 272.9852 13.14502983201398
ONEWEB-0180             
1 48213U 21031D   25175.93443265 -.00000148  00000+0 -43301-3 0  9999
2 48213  87.9028   0.7523 0002050  88.1560 271.9804 13.14502364201289
ONEWEB-0218             
1 48214U 21031E   25175.57605046  .00000194  00000+0  48839-3 0  9997
2 48214  87.9027   0.8248 0002774  92.2781 267.8666 13.14501779201399
ONEWEB-0209             
1 48215U 21031F   25175.56495342  .00000086  00000+0  19646-3 0  9997
2 48215  87.9032   0.8701 0001842  83.7983 276.3357 13.14502174201396
ONEWEB-0198             
1 48216U 21031G   25175.77744262 -.00000163  00000+0 -47547-3 0  9998
2 48216  87.9030   0.8293 0002179  87.2433 272.8946 13.14501767201532
ONEWEB-0189             
1 48217U 21031H   25175.56177745  .00000000  00000+0 -34271-4 0  9992
2 48217  87.9025   0.8460 0002183  85.6513 274.4866 13.14503308201249
